[{"OBJECT_NAME":"STARLINK-4289","OBJECT_ID":"2022-076AQ","EPOCH":"2026-03-09T12:46:10.726176","MEAN_MOTION":15.08844956,"ECCENTRICITY":0.00016795,"INCLINATION":53.2167,"RA_OF_ASC_NODE":84.8281,"ARG_OF_PERICENTER":80.967,"MEAN_ANOMALY":279.1512,"EPHEMERIS_TYPE":0,"CLASSIFICATION_TYPE":"U","NORAD_CAT_ID":53024,"ELEMENT_SET_NO":999,"REV_AT_EPOCH":20296,"BSTAR":-8.59446e-5,"MEAN_MOTION_DOT":-1.656e-5,"MEAN_MOTION_DDOT":0},{"OBJECT_NAME":"PRSC-S1","OBJECT_ID":"2025-164A","EPOCH":"2026-03-09T14:34:55.095168","MEAN_MOTION":15.0891951,"ECCENTRICITY":0.0004466,"INCLINATION":41.129,"RA_OF_ASC_NODE":129.3637,"ARG_OF_PERICENTER":348.3012,"MEAN_ANOMALY":11.7698,"EPHEMERIS_TYPE":0,"CLASSIFICATION_TYPE":"U","NORAD_CAT_ID":65055,"ELEMENT_SET_NO":999,"REV_AT_EPOCH":3340,"BSTAR":0.00046631,"MEAN_MOTION_DOT":7.316e-5,"MEAN_MOTION_DDOT":0}]
